[{"OBJECT_NAME":"ATLAS 5 CENTAUR DEB","OBJECT_ID":"2018-079GP","EPOCH":"2026-03-03T13:23:20.213376","MEAN_MOTION":1.72871664,"ECCENTRICITY":0.4575538,"INCLINATION":13.1597,"RA_OF_ASC_NODE":67.2794,"ARG_OF_PERICENTER":242.5097,"MEAN_ANOMALY":64.1641,"EPHEMERIS_TYPE":0,"CLASSIFICATION_TYPE":"U","NORAD_CAT_ID":52045,"ELEMENT_SET_NO":999,"REV_AT_EPOCH":2885,"BSTAR":0,"MEAN_MOTION_DOT":-1.23e-6,"MEAN_MOTION_DDOT":0},{"OBJECT_NAME":"MERIDIAN 10","OBJECT_ID":"2022-030A","EPOCH":"2026-03-04T19:01:50.061792","MEAN_MOTION":2.00610532,"ECCENTRICITY":0.675857,"INCLINATION":62.6644,"RA_OF_ASC_NODE":151.941,"ARG_OF_PERICENTER":272.9562,"MEAN_ANOMALY":17.8251,"EPHEMERIS_TYPE":0,"CLASSIFICATION_TYPE":"U","NORAD_CAT_ID":52145,"ELEMENT_SET_NO":999,"REV_AT_EPOCH":2893,"BSTAR":0,"MEAN_MOTION_DOT":2.57e-6,"MEAN_MOTION_DDOT":0},{"OBJECT_NAME":"FREGAT R/B","OBJECT_ID":"2022-030B","EPOCH":"2026-02-27T07:25:24.601728","MEAN_MOTION":2.00081982,"ECCENTRICITY":0.68380508,"INCLINATION":62.6531,"RA_OF_ASC_NODE":147.1094,"ARG_OF_PERICENTER":274.4825,"MEAN_ANOMALY":16.6448,"EPHEMERIS_TYPE":0,"CLASSIFICATION_TYPE":"U","NORAD_CAT_ID":52146,"ELEMENT_SET_NO":999,"REV_AT_EPOCH":2881,"BSTAR":0,"MEAN_MOTION_DOT":6.41e-6,"MEAN_MOTION_DDOT":0},{"OBJECT_NAME":"ZHONGXING-6D","OBJECT_ID":"2022-038A","EPOCH":"2026-03-05T04:47:43.235808","MEAN_MOTION":1.00272047,"ECCENTRICITY":0.0002175,"INCLINATION":0.0433,"RA_OF_ASC_NODE":247.6193,"ARG_OF_PERICENTER":60.0195,"MEAN_ANOMALY":52.3111,"EPHEMERIS_TYPE":0,"CLASSIFICATION_TYPE":"U","NORAD_CAT_ID":52255,"ELEMENT_SET_NO":999,"REV_AT_EPOCH":1438,"BSTAR":0,"MEAN_MOTION_DOT":-3.62e-6,"MEAN_MOTION_DDOT":0},{"OBJECT_NAME":"NILESAT 301","OBJECT_ID":"2022-061A","EPOCH":"2026-03-05T15:40:32.016576","MEAN_MOTION":1.00271628,"ECCENTRICITY":0.000565,"INCLINATION":0.0239,"RA_OF_ASC_NODE":336.5653,"ARG_OF_PERICENTER":15.7066,"MEAN_ANOMALY":39.2869,"EPHEMERIS_TYPE":0,"CLASSIFICATION_TYPE":"U","NORAD_CAT_ID":52817,"ELEMENT_SET_NO":999,"REV_AT_EPOCH":1369,"BSTAR":0,"MEAN_MOTION_DOT":0,"MEAN_MOTION_DDOT":0},{"OBJECT_NAME":"FALCON 9 R/B","OBJECT_ID":"2022-061B","EPOCH":"2026-03-04T17:44:17.164320","MEAN_MOTION":1.81956069,"ECCENTRICITY":0.76357394,"INCLINATION":18.7913,"RA_OF_ASC_NODE":2.8078,"ARG_OF_PERICENTER":197.5927,"MEAN_ANOMALY":102.8712,"EPHEMERIS_TYPE":0,"CLASSIFICATION_TYPE":"U","NORAD_CAT_ID":52818,"ELEMENT_SET_NO":999,"REV_AT_EPOCH":2442,"BSTAR":0.0018310902,"MEAN_MOTION_DOT":1.016e-5,"MEAN_MOTION_DDOT":0},{"OBJECT_NAME":"CMS-02 (GSAT 24)","OBJECT_ID":"2022-067A","EPOCH":"2026-03-05T17:19:38.654688","MEAN_MOTION":1.0027211,"ECCENTRICITY":0.0002599,"INCLINATION":0.0449,"RA_OF_ASC_NODE":253.0287,"ARG_OF_PERICENTER":43.9308,"MEAN_ANOMALY":209.4143,"EPHEMERIS_TYPE":0,"CLASSIFICATION_TYPE":"U","NORAD_CAT_ID":52903,"ELEMENT_SET_NO":999,"REV_AT_EPOCH":1357,"BSTAR":0,"MEAN_MOTION_DOT":-1.72e-6,"MEAN_MOTION_DDOT":0},{"OBJECT_NAME":"MEASAT 3D","OBJECT_ID":"2022-067B","EPOCH":"2026-03-05T16:06:51.607296","MEAN_MOTION":1.0027071,"ECCENTRICITY":0.0003096,"INCLINATION":0.0575,"RA_OF_ASC_NODE":308.0983,"ARG_OF_PERICENTER":23.199,"MEAN_ANOMALY":165.2968,"EPHEMERIS_TYPE":0,"CLASSIFICATION_TYPE":"U","NORAD_CAT_ID":52904,"ELEMENT_SET_NO":999,"REV_AT_EPOCH":1361,"BSTAR":0,"MEAN_MOTION_DOT":-2.48e-6,"MEAN_MOTION_DDOT":0},{"OBJECT_NAME":"SES-22","OBJECT_ID":"2022-071A","EPOCH":"2026-03-05T15:02:50.631360","MEAN_MOTION":1.00268844,"ECCENTRICITY":0.000108,"INCLINATION":0.0181,"RA_OF_ASC_NODE":163.947,"ARG_OF_PERICENTER":179.8766,"MEAN_ANOMALY":266.2615,"EPHEMERIS_TYPE":0,"CLASSIFICATION_TYPE":"U","NORAD_CAT_ID":52933,"ELEMENT_SET_NO":999,"REV_AT_EPOCH":648,"BSTAR":0,"MEAN_MOTION_DOT":0,"MEAN_MOTION_DDOT":0},{"OBJECT_NAME":"WFOV (USA 332)","OBJECT_ID":"2022-073A","EPOCH":"2026-03-05T14:33:53.407296","MEAN_MOTION":1.00274382,"ECCENTRICITY":0.0001664,"INCLINATION":3.4452,"RA_OF_ASC_NODE":79.8674,"ARG_OF_PERICENTER":217.2955,"MEAN_ANOMALY":203.8925,"EPHEMERIS_TYPE":0,"CLASSIFICATION_TYPE":"U","NORAD_CAT_ID":52940,"ELEMENT_SET_NO":999,"REV_AT_EPOCH":1333,"BSTAR":0,"MEAN_MOTION_DOT":-3.68e-6,"MEAN_MOTION_DDOT":0},{"OBJECT_NAME":"ATLAS 5 CENTAUR DEB","OBJECT_ID":"2018-079GX","EPOCH":"2026-03-03T11:36:30.898080","MEAN_MOTION":1.71415209,"ECCENTRICITY":0.4546731,"INCLINATION":12.6826,"RA_OF_ASC_NODE":76.7869,"ARG_OF_PERICENTER":228.4598,"MEAN_ANOMALY":82.606,"EPHEMERIS_TYPE":0,"CLASSIFICATION_TYPE":"U","NORAD_CAT_ID":52973,"ELEMENT_SET_NO":999,"REV_AT_EPOCH":2861,"BSTAR":0,"MEAN_MOTION_DOT":-1.13e-6,"MEAN_MOTION_DDOT":0},{"OBJECT_NAME":"TIANLIAN 2-03","OBJECT_ID":"2022-078A","EPOCH":"2026-03-05T02:53:38.857632","MEAN_MOTION":1.00272188,"ECCENTRICITY":0.0003303,"INCLINATION":0.4065,"RA_OF_ASC_NODE":73.0633,"ARG_OF_PERICENTER":253.165,"MEAN_ANOMALY":250.6268,"EPHEMERIS_TYPE":0,"CLASSIFICATION_TYPE":"U","NORAD_CAT_ID":53100,"ELEMENT_SET_NO":999,"REV_AT_EPOCH":1350,"BSTAR":0,"MEAN_MOTION_DOT":6.3e-7,"MEAN_MOTION_DDOT":0},{"OBJECT_NAME":"SBIRS GEO-6 (USA 336)","OBJECT_ID":"2022-092A","EPOCH":"2026-03-05T04:23:20.565024","MEAN_MOTION":1.0027149,"ECCENTRICITY":0.000228,"INCLINATION":3.4362,"RA_OF_ASC_NODE":315.8451,"ARG_OF_PERICENTER":24.4419,"MEAN_ANOMALY":27.4444,"EPHEMERIS_TYPE":0,"CLASSIFICATION_TYPE":"U","NORAD_CAT_ID":53355,"ELEMENT_SET_NO":999,"REV_AT_EPOCH":1319,"BSTAR":0,"MEAN_MOTION_DOT":-3.02e-6,"MEAN_MOTION_DDOT":0},{"OBJECT_NAME":"EUTELSAT KONNECT VHTS","OBJECT_ID":"2022-110A","EPOCH":"2026-03-05T15:43:16.755456","MEAN_MOTION":1.00272878,"ECCENTRICITY":0.0003235,"INCLINATION":0.0578,"RA_OF_ASC_NODE":103.5889,"ARG_OF_PERICENTER":222.2434,"MEAN_ANOMALY":76.0602,"EPHEMERIS_TYPE":0,"CLASSIFICATION_TYPE":"U","NORAD_CAT_ID":53765,"ELEMENT_SET_NO":999,"REV_AT_EPOCH":579,"BSTAR":0,"MEAN_MOTION_DOT":1.0e-7,"MEAN_MOTION_DDOT":0},{"OBJECT_NAME":"ARIANE 5 R/B","OBJECT_ID":"2022-110B","EPOCH":"2026-03-05T07:08:27.939840","MEAN_MOTION":1.54427055,"ECCENTRICITY":0.7918284,"INCLINATION":4.5518,"RA_OF_ASC_NODE":234.7447,"ARG_OF_PERICENTER":17.0151,"MEAN_ANOMALY":358.6591,"EPHEMERIS_TYPE":0,"CLASSIFICATION_TYPE":"U","NORAD_CAT_ID":53766,"ELEMENT_SET_NO":999,"REV_AT_EPOCH":1002,"BSTAR":0.00040764,"MEAN_MOTION_DOT":2.058e-5,"MEAN_MOTION_DDOT":0},{"OBJECT_NAME":"ZHONGXING-1E","OBJECT_ID":"2022-112A","EPOCH":"2026-03-05T04:13:38.615232","MEAN_MOTION":1.00269671,"ECCENTRICITY":0.0003318,"INCLINATION":0.0227,"RA_OF_ASC_NODE":113.7834,"ARG_OF_PERICENTER":190.6775,"MEAN_ANOMALY":3.2012,"EPHEMERIS_TYPE":0,"CLASSIFICATION_TYPE":"U","NORAD_CAT_ID":53813,"ELEMENT_SET_NO":999,"REV_AT_EPOCH":1280,"BSTAR":0,"MEAN_MOTION_DOT":-1.57e-6,"MEAN_MOTION_DDOT":0},{"OBJECT_NAME":"SES-20","OBJECT_ID":"2022-123A","EPOCH":"2026-03-05T08:02:38.801184","MEAN_MOTION":1.00271408,"ECCENTRICITY":0.0001608,"INCLINATION":0.0163,"RA_OF_ASC_NODE":109.4128,"ARG_OF_PERICENTER":314.8769,"MEAN_ANOMALY":116.3178,"EPHEMERIS_TYPE":0,"CLASSIFICATION_TYPE":"U","NORAD_CAT_ID":53960,"ELEMENT_SET_NO":999,"REV_AT_EPOCH":1249,"BSTAR":0,"MEAN_MOTION_DOT":-1.09e-6,"MEAN_MOTION_DDOT":0}]
