ATLAS 5 CENTAUR DEB     
1 52045U 18079GP  26062.55787284 -.00000123  00000+0  00000+0 0  9998
2 52045  13.1597  67.2794 4575538 242.5097  64.1641  1.72871664 28852
MERIDIAN 10             
1 52145U 22030A   26063.79294053  .00000257  00000+0  00000+0 0  9992
2 52145  62.6644 151.9410 6758570 272.9562  17.8251  2.00610532 28934
FREGAT R/B              
1 52146U 22030B   26058.30931252  .00000641  00000+0  00000+0 0  9990
2 52146  62.6531 147.1094 6838050 274.4825  16.6448  2.00081982 28819
ZHONGXING-6D            
1 52255U 22038A   26064.19980597 -.00000362  00000+0  00000+0 0  9990
2 52255   0.0433 247.6193 0002175  60.0195  52.3111  1.00272047 14381
NILESAT 301             
1 52817U 22061A   26064.65314834  .00000000  00000+0  00000+0 0  9994
2 52817   0.0239 336.5653 0005650  15.7066  39.2869  1.00271628 13694
FALCON 9 R/B            
1 52818U 22061B   26063.73908755  .00001016  00000+0  18311-2 0  9999
2 52818  18.7913   2.8078 7635739 197.5927 102.8712  1.81956069 24428
CMS-02 (GSAT 24)        
1 52903U 22067A   26064.72197517 -.00000172  00000+0  00000+0 0  9992
2 52903   0.0449 253.0287 0002599  43.9308 209.4143  1.00272110 13570
MEASAT 3D               
1 52904U 22067B   26064.67143064 -.00000248  00000+0  00000+0 0  9999
2 52904   0.0575 308.0983 0003096  23.1990 165.2968  1.00270710 13618
SES-22                  
1 52933U 22071A   26064.62697490  .00000000  00000+0  00000+0 0  9993
2 52933   0.0181 163.9470 0001080 179.8766 266.2615  1.00268844  6486
WFOV (USA 332)          
1 52940U 22073A   26064.60686814 -.00000368  00000+0  00000+0 0  9997
2 52940   3.4452  79.8674 0001664 217.2955 203.8925  1.00274382 13335
ATLAS 5 CENTAUR DEB     
1 52973U 18079GX  26062.48369095 -.00000113  00000+0  00000+0 0  9995
2 52973  12.6826  76.7869 4546731 228.4598  82.6060  1.71415209 28613
TIANLIAN 2-03           
1 53100U 22078A   26064.12058863  .00000063  00000+0  00000+0 0  9996
2 53100   0.4065  73.0633 0003303 253.1650 250.6268  1.00272188 13506
SBIRS GEO-6 (USA 336)   
1 53355U 22092A   26064.18287691 -.00000302  00000+0  00000+0 0  9990
2 53355   3.4362 315.8451 0002280  24.4419  27.4444  1.00271490 13197
EUTELSAT KONNECT VHTS   
1 53765U 22110A   26064.65505504  .00000010  00000+0  00000+0 0  9999
2 53765   0.0578 103.5889 0003235 222.2434  76.0602  1.00272878  5791
ARIANE 5 R/B            
1 53766U 22110B   26064.29754560  .00002058  00000+0  40764-3 0  9997
2 53766   4.5518 234.7447 7918284  17.0151 358.6591  1.54427055 10020
ZHONGXING-1E            
1 53813U 22112A   26064.17614138 -.00000157  00000+0  00000+0 0  9999
2 53813   0.0227 113.7834 0003318 190.6775   3.2012  1.00269671 12801
SES-20                  
1 53960U 22123A   26064.33517131 -.00000109  00000+0  00000+0 0  9994
2 53960   0.0163 109.4128 0001608 314.8769 116.3178  1.00271408 12499
